{
  "links" : {
    "next" : "https://api.nasa.gov/neo/rest/v1/feed?start_date=2007-11-09&end_date=2007-11-09&detailed=true&api_key=t0TVs3DtDT2H8Oy2Zy8m2eVrNsAVKAexjcZXUckd",
    "prev" : "https://api.nasa.gov/neo/rest/v1/feed?start_date=2007-11-07&end_date=2007-11-07&detailed=true&api_key=t0TVs3DtDT2H8Oy2Zy8m2eVrNsAVKAexjcZXUckd",
    "self" : "https://api.nasa.gov/neo/rest/v1/feed?start_date=2007-11-08&end_date=2007-11-08&detailed=true&api_key=t0TVs3DtDT2H8Oy2Zy8m2eVrNsAVKAexjcZXUckd"
  },
  "element_count" : 15,
  "near_earth_objects" : {
    "2007-11-08" : [ {
      "links" : {
        "self" : "https://api.nasa.gov/neo/rest/v1/neo/3392371?api_key=t0TVs3DtDT2H8Oy2Zy8m2eVrNsAVKAexjcZXUckd"
      },
      "neo_reference_id" : "3392371",
      "name" : "(2007 VW7)",
      "nasa_jpl_url" : "http://ssd.jpl.nasa.gov/sbdb.cgi?sstr=3392371",
      "absolute_magnitude_h" : 25.1,
      "estimated_diameter" : {
        "kilometers" : {
          "estimated_diameter_min" : 0.0253837029,
          "estimated_diameter_max" : 0.0567596853
        },
        "meters" : {
          "estimated_diameter_min" : 25.3837029364,
          "estimated_diameter_max" : 56.7596852866
        },
        "miles" : {
          "estimated_diameter_min" : 0.0157726969,
          "estimated_diameter_max" : 0.0352688224
        },
        "feet" : {
          "estimated_diameter_min" : 83.279867942,
          "estimated_diameter_max" : 186.2194458756
        }
      },
      "is_potentially_hazardous_asteroid" : false,
      "close_approach_data" : [ {
        "close_approach_date" : "2007-11-08",
        "epoch_date_close_approach" : 1194508800000,
        "relative_velocity" : {
          "kilometers_per_second" : "7.2493934764",
          "kilometers_per_hour" : "26097.8165152013",
          "miles_per_hour" : "16216.1682674594"
        },
        "miss_distance" : {
          "astronomical" : "0.0576026712",
          "lunar" : "22.4074382782",
          "kilometers" : "8617237",
          "miles" : "5354502.5"
        },
        "orbiting_body" : "Earth"
      } ],
      "orbital_data" : {
        "orbit_id" : "9",
        "orbit_determination_date" : "2017-04-06 09:05:22",
        "orbit_uncertainty" : "8",
        "minimum_orbit_intersection" : ".0570557",
        "jupiter_tisserand_invariant" : "4.874",
        "epoch_osculation" : "2454410.5",
        "eccentricity" : ".2277857630938647",
        "semi_major_axis" : "1.329787700534059",
        "inclination" : "12.48128618551631",
        "ascending_node_longitude" : "220.8720184952273",
        "orbital_period" : "560.1081531973418",
        "perihelion_distance" : "1.026880994415073",
        "perihelion_argument" : "209.6634359665624",
        "aphelion_distance" : "1.632694406653046",
        "perihelion_time" : "2454437.345570009865",
        "mean_anomaly" : "342.7454659454915",
        "mean_motion" : ".6427330113746119",
        "equinox" : "J2000"
      }
    }, {
      "links" : {
        "self" : "https://api.nasa.gov/neo/rest/v1/neo/3393819?api_key=t0TVs3DtDT2H8Oy2Zy8m2eVrNsAVKAexjcZXUckd"
      },
      "neo_reference_id" : "3393819",
      "name" : "(2007 VW83)",
      "nasa_jpl_url" : "http://ssd.jpl.nasa.gov/sbdb.cgi?sstr=3393819",
      "absolute_magnitude_h" : 24.1,
      "estimated_diameter" : {
        "kilometers" : {
          "estimated_diameter_min" : 0.040230458,
          "estimated_diameter_max" : 0.0899580388
        },
        "meters" : {
          "estimated_diameter_min" : 40.2304579834,
          "estimated_diameter_max" : 89.9580388169
        },
        "miles" : {
          "estimated_diameter_min" : 0.0249980399,
          "estimated_diameter_max" : 0.0558973165
        },
        "feet" : {
          "estimated_diameter_min" : 131.9896957704,
          "estimated_diameter_max" : 295.1379320721
        }
      },
      "is_potentially_hazardous_asteroid" : false,
      "close_approach_data" : [ {
        "close_approach_date" : "2007-11-08",
        "epoch_date_close_approach" : 1194508800000,
        "relative_velocity" : {
          "kilometers_per_second" : "5.7989846383",
          "kilometers_per_hour" : "20876.344697988",
          "miles_per_hour" : "12971.7487374804"
        },
        "miss_distance" : {
          "astronomical" : "0.0888234847",
          "lunar" : "34.5523338318",
          "kilometers" : "13287804",
          "miles" : "8256658.5"
        },
        "orbiting_body" : "Earth"
      } ],
      "orbital_data" : {
        "orbit_id" : "10",
        "orbit_determination_date" : "2017-04-06 09:05:19",
        "orbit_uncertainty" : "7",
        "minimum_orbit_intersection" : ".0661108",
        "jupiter_tisserand_invariant" : "6.576",
        "epoch_osculation" : "2458000.5",
        "eccentricity" : ".2192850183279404",
        "semi_major_axis" : ".9018567012420879",
        "inclination" : "7.069793849682513",
        "ascending_node_longitude" : "39.07072064508974",
        "orbital_period" : "312.8273616109144",
        "perihelion_distance" : ".7040930379810408",
        "perihelion_argument" : "163.4580810195893",
        "aphelion_distance" : "1.099620364503135",
        "perihelion_time" : "2457978.687639441734",
        "mean_anomaly" : "25.10154406104126",
        "mean_motion" : "1.150794477011757",
        "equinox" : "J2000"
      }
    }, {
      "links" : {
        "self" : "https://api.nasa.gov/neo/rest/v1/neo/3394708?api_key=t0TVs3DtDT2H8Oy2Zy8m2eVrNsAVKAexjcZXUckd"
      },
      "neo_reference_id" : "3394708",
      "name" : "(2007 VA188)",
      "nasa_jpl_url" : "http://ssd.jpl.nasa.gov/sbdb.cgi?sstr=3394708",
      "absolute_magnitude_h" : 19.4,
      "estimated_diameter" : {
        "kilometers" : {
          "estimated_diameter_min" : 0.3503926411,
          "estimated_diameter_max" : 0.7835017643
        },
        "meters" : {
          "estimated_diameter_min" : 350.3926411083,
          "estimated_diameter_max" : 783.5017643338
        },
        "miles" : {
          "estimated_diameter_min" : 0.2177238258,
          "estimated_diameter_max" : 0.4868452748
        },
        "feet" : {
          "estimated_diameter_min" : 1149.5821926537,
          "estimated_diameter_max" : 2570.543928497
        }
      },
      "is_potentially_hazardous_asteroid" : false,
      "close_approach_data" : [ {
        "close_approach_date" : "2007-11-08",
        "epoch_date_close_approach" : 1194508800000,
        "relative_velocity" : {
          "kilometers_per_second" : "18.7302589982",
          "kilometers_per_hour" : "67428.9323935103",
          "miles_per_hour" : "41897.7163530675"
        },
        "miss_distance" : {
          "astronomical" : "0.328077243",
          "lunar" : "127.6220550537",
          "kilometers" : "49079660",
          "miles" : "30496686"
        },
        "orbiting_body" : "Earth"
      } ],
      "orbital_data" : {
        "orbit_id" : "15",
        "orbit_determination_date" : "2017-04-06 09:05:11",
        "orbit_uncertainty" : "6",
        "minimum_orbit_intersection" : ".124811",
        "jupiter_tisserand_invariant" : "2.850",
        "epoch_osculation" : "2458000.5",
        "eccentricity" : ".6339326869698689",
        "semi_major_axis" : "2.965013560904576",
        "inclination" : "20.32584538054927",
        "ascending_node_longitude" : "38.42502044759507",
        "orbital_period" : "1864.82658938307",
        "perihelion_distance" : "1.085394547338239",
        "perihelion_argument" : "333.2534967443476",
        "aphelion_distance" : "4.844632574470912",
        "perihelion_time" : "2458137.473170349122",
        "mean_anomaly" : "333.5576800510996",
        "mean_motion" : ".1930474404695703",
        "equinox" : "J2000"
      }
    } ]
  }
}